FENGYUN 1C DEB          
1 30882U 99025AXU 17344.98608429  .00000579  00000-0  10106-3 0  9993
2 30882  98.3179  43.5632 0243816 205.9226 152.9591 14.54569019570270
